ORBCOMM FM05            
1 25117U 97084F   24164.22008722  .00002637  00000+0  82373-3 0  9997
2 25117  45.0167 340.4100 0003415 176.0987 183.9891 14.42922562388054
ORBCOMM FM06            
1 25118U 97084G   24164.21027807  .00003122  00000+0  96591-3 0  9999
2 25118  45.0160 340.6085 0002767 188.0507 341.1933 14.42985763388026
ORBCOMM FM03            
1 25158U 98007B   24164.27638479  .00001592  00000+0  62987-3 0  9999
2 25158 107.9707  96.8165 0046446 176.3576 183.7909 14.32310019371033
ORBCOMM FM04            
1 25159U 98007C   24164.18911844  .00001809  00000+0  70661-3 0  9999
2 25159 107.9682  99.5965 0041952 174.3902 185.7714 14.32578805371194
ORBCOMM FM17            
1 25413U 98046A   24164.39291294  .00001098  00000+0  44615-3 0  9998
2 25413  44.9934 200.4884 0002465 218.8419 141.2251 14.33280052350255
ORBCOMM FM18            
1 25414U 98046B   24164.25397578  .00002239  00000+0  81043-3 0  9990
2 25414  44.9925 127.5329 0004177 243.9141 116.1277 14.36081824351026
ORBCOMM FM19            
1 25415U 98046C   24164.25043116  .00002241  00000+0  81368-3 0  9990
2 25415  44.9932 129.0053 0002920 246.1598 251.3793 14.35916252350981
