<?xml version="1.0" encoding="UTF-8"?>
<ndm xmlns:xsi="http://www.w3.org/2001/XMLSchema-instance" xsi:noNamespaceSchemaLocation="https://sanaregistry.org/r/ndmxml_unqualified/ndmxml-2.0.0-master-2.0.xsd">
<omm id="CCSDS_OMM_VERS" version="2.0">
<header><CREATION_DATE/><ORIGINATOR/></header><body><segment><metadata><OBJECT_NAME>ORBCOMM FM05</OBJECT_NAME><OBJECT_ID>1997-084F</OBJECT_ID><CENTER_NAME>EARTH</CENTER_NAME><REF_FRAME>TEME</REF_FRAME><TIME_SYSTEM>UTC</TIME_SYSTEM><MEAN_ELEMENT_THEORY>SGP4</MEAN_ELEMENT_THEORY></metadata><data><meanElements><EPOCH>2024-06-12T05:16:55.535808</EPOCH><MEAN_MOTION>14.42922562</MEAN_MOTION><ECCENTRICITY>.0003415</ECCENTRICITY><INCLINATION>45.0167</INCLINATION><RA_OF_ASC_NODE>340.4100</RA_OF_ASC_NODE><ARG_OF_PERICENTER>176.0987</ARG_OF_PERICENTER><MEAN_ANOMALY>183.9891</MEAN_ANOMALY></meanElements><tleParameters><EPHEMERIS_TYPE>0</EPHEMERIS_TYPE><CLASSIFICATION_TYPE>U</CLASSIFICATION_TYPE><NORAD_CAT_ID>25117</NORAD_CAT_ID><ELEMENT_SET_NO>999</ELEMENT_SET_NO><REV_AT_EPOCH>38805</REV_AT_EPOCH><BSTAR>.82373E-3</BSTAR><MEAN_MOTION_DOT>.2637E-4</MEAN_MOTION_DOT><MEAN_MOTION_DDOT>0</MEAN_MOTION_DDOT></tleParameters></data></segment></body></omm>
<omm id="CCSDS_OMM_VERS" version="2.0">
<header><CREATION_DATE/><ORIGINATOR/></header><body><segment><metadata><OBJECT_NAME>ORBCOMM FM06</OBJECT_NAME><OBJECT_ID>1997-084G</OBJECT_ID><CENTER_NAME>EARTH</CENTER_NAME><REF_FRAME>TEME</REF_FRAME><TIME_SYSTEM>UTC</TIME_SYSTEM><MEAN_ELEMENT_THEORY>SGP4</MEAN_ELEMENT_THEORY></metadata><data><meanElements><EPOCH>2024-06-12T05:02:48.025248</EPOCH><MEAN_MOTION>14.42985763</MEAN_MOTION><ECCENTRICITY>.0002767</ECCENTRICITY><INCLINATION>45.0160</INCLINATION><RA_OF_ASC_NODE>340.6085</RA_OF_ASC_NODE><ARG_OF_PERICENTER>188.0507</ARG_OF_PERICENTER><MEAN_ANOMALY>341.1933</MEAN_ANOMALY></meanElements><tleParameters><EPHEMERIS_TYPE>0</EPHEMERIS_TYPE><CLASSIFICATION_TYPE>U</CLASSIFICATION_TYPE><NORAD_CAT_ID>25118</NORAD_CAT_ID><ELEMENT_SET_NO>999</ELEMENT_SET_NO><REV_AT_EPOCH>38802</REV_AT_EPOCH><BSTAR>.96591E-3</BSTAR><MEAN_MOTION_DOT>.3122E-4</MEAN_MOTION_DOT><MEAN_MOTION_DDOT>0</MEAN_MOTION_DDOT></tleParameters></data></segment></body></omm>
<omm id="CCSDS_OMM_VERS" version="2.0">
<header><CREATION_DATE/><ORIGINATOR/></header><body><segment><metadata><OBJECT_NAME>ORBCOMM FM03</OBJECT_NAME><OBJECT_ID>1998-007B</OBJECT_ID><CENTER_NAME>EARTH</CENTER_NAME><REF_FRAME>TEME</REF_FRAME><TIME_SYSTEM>UTC</TIME_SYSTEM><MEAN_ELEMENT_THEORY>SGP4</MEAN_ELEMENT_THEORY></metadata><data><meanElements><EPOCH>2024-06-12T06:37:59.645856</EPOCH><MEAN_MOTION>14.32310019</MEAN_MOTION><ECCENTRICITY>.0046446</ECCENTRICITY><INCLINATION>107.9707</INCLINATION><RA_OF_ASC_NODE>96.8165</RA_OF_ASC_NODE><ARG_OF_PERICENTER>176.3576</ARG_OF_PERICENTER><MEAN_ANOMALY>183.7909</MEAN_ANOMALY></meanElements><tleParameters><EPHEMERIS_TYPE>0</EPHEMERIS_TYPE><CLASSIFICATION_TYPE>U</CLASSIFICATION_TYPE><NORAD_CAT_ID>25158</NORAD_CAT_ID><ELEMENT_SET_NO>999</ELEMENT_SET_NO><REV_AT_EPOCH>37103</REV_AT_EPOCH><BSTAR>.62987E-3</BSTAR><MEAN_MOTION_DOT>.1592E-4</MEAN_MOTION_DOT><MEAN_MOTION_DDOT>0</MEAN_MOTION_DDOT></tleParameters></data></segment></body></omm>
<omm id="CCSDS_OMM_VERS" version="2.0">
<header><CREATION_DATE/><ORIGINATOR/></header><body><segment><metadata><OBJECT_NAME>ORBCOMM FM04</OBJECT_NAME><OBJECT_ID>1998-007C</OBJECT_ID><CENTER_NAME>EARTH</CENTER_NAME><REF_FRAME>TEME</REF_FRAME><TIME_SYSTEM>UTC</TIME_SYSTEM><MEAN_ELEMENT_THEORY>SGP4</MEAN_ELEMENT_THEORY></metadata><data><meanElements><EPOCH>2024-06-12T04:32:19.833216</EPOCH><MEAN_MOTION>14.32578805</MEAN_MOTION><ECCENTRICITY>.0041952</ECCENTRICITY><INCLINATION>107.9682</INCLINATION><RA_OF_ASC_NODE>99.5965</RA_OF_ASC_NODE><ARG_OF_PERICENTER>174.3902</ARG_OF_PERICENTER><MEAN_ANOMALY>185.7714</MEAN_ANOMALY></meanElements><tleParameters><EPHEMERIS_TYPE>0</EPHEMERIS_TYPE><CLASSIFICATION_TYPE>U</CLASSIFICATION_TYPE><NORAD_CAT_ID>25159</NORAD_CAT_ID><ELEMENT_SET_NO>999</ELEMENT_SET_NO><REV_AT_EPOCH>37119</REV_AT_EPOCH><BSTAR>.70661E-3</BSTAR><MEAN_MOTION_DOT>.1809E-4</MEAN_MOTION_DOT><MEAN_MOTION_DDOT>0</MEAN_MOTION_DDOT></tleParameters></data></segment></body></omm>
<omm id="CCSDS_OMM_VERS" version="2.0">
<header><CREATION_DATE/><ORIGINATOR/></header><body><segment><metadata><OBJECT_NAME>ORBCOMM FM17</OBJECT_NAME><OBJECT_ID>1998-046A</OBJECT_ID><CENTER_NAME>EARTH</CENTER_NAME><REF_FRAME>TEME</REF_FRAME><TIME_SYSTEM>UTC</TIME_SYSTEM><MEAN_ELEMENT_THEORY>SGP4</MEAN_ELEMENT_THEORY></metadata><data><meanElements><EPOCH>2024-06-12T09:25:47.678016</EPOCH><MEAN_MOTION>14.33280052</MEAN_MOTION><ECCENTRICITY>.0002465</ECCENTRICITY><INCLINATION>44.9934</INCLINATION><RA_OF_ASC_NODE>200.4884</RA_OF_ASC_NODE><ARG_OF_PERICENTER>218.8419</ARG_OF_PERICENTER><MEAN_ANOMALY>141.2251</MEAN_ANOMALY></meanElements><tleParameters><EPHEMERIS_TYPE>0</EPHEMERIS_TYPE><CLASSIFICATION_TYPE>U</CLASSIFICATION_TYPE><NORAD_CAT_ID>25413</NORAD_CAT_ID><ELEMENT_SET_NO>999</ELEMENT_SET_NO><REV_AT_EPOCH>35025</REV_AT_EPOCH><BSTAR>.44615E-3</BSTAR><MEAN_MOTION_DOT>.1098E-4</MEAN_MOTION_DOT><MEAN_MOTION_DDOT>0</MEAN_MOTION_DDOT></tleParameters></data></segment></body></omm>
<omm id="CCSDS_OMM_VERS" version="2.0">
<header><CREATION_DATE/><ORIGINATOR/></header><body><segment><metadata><OBJECT_NAME>ORBCOMM FM18</OBJECT_NAME><OBJECT_ID>1998-046B</OBJECT_ID><CENTER_NAME>EARTH</CENTER_NAME><REF_FRAME>TEME</REF_FRAME><TIME_SYSTEM>UTC</TIME_SYSTEM><MEAN_ELEMENT_THEORY>SGP4</MEAN_ELEMENT_THEORY></metadata><data><meanElements><EPOCH>2024-06-12T06:05:43.507392</EPOCH><MEAN_MOTION>14.36081824</MEAN_MOTION><ECCENTRICITY>.0004177</ECCENTRICITY><INCLINATION>44.9925</INCLINATION><RA_OF_ASC_NODE>127.5329</RA_OF_ASC_NODE><ARG_OF_PERICENTER>243.9141</ARG_OF_PERICENTER><MEAN_ANOMALY>116.1277</MEAN_ANOMALY></meanElements><tleParameters><EPHEMERIS_TYPE>0</EPHEMERIS_TYPE><CLASSIFICATION_TYPE>U</CLASSIFICATION_TYPE><NORAD_CAT_ID>25414</NORAD_CAT_ID><ELEMENT_SET_NO>999</ELEMENT_SET_NO><REV_AT_EPOCH>35102</REV_AT_EPOCH><BSTAR>.81043E-3</BSTAR><MEAN_MOTION_DOT>.2239E-4</MEAN_MOTION_DOT><MEAN_MOTION_DDOT>0</MEAN_MOTION_DDOT></tleParameters></data></segment></body></omm>
<omm id="CCSDS_OMM_VERS" version="2.0">
<header><CREATION_DATE/><ORIGINATOR/></header><body><segment><metadata><OBJECT_NAME>ORBCOMM FM19</OBJECT_NAME><OBJECT_ID>1998-046C</OBJECT_ID><CENTER_NAME>EARTH</CENTER_NAME><REF_FRAME>TEME</REF_FRAME><TIME_SYSTEM>UTC</TIME_SYSTEM><MEAN_ELEMENT_THEORY>SGP4</MEAN_ELEMENT_THEORY></metadata><data><meanElements><EPOCH>2024-06-12T06:00:37.252224</EPOCH><MEAN_MOTION>14.35916252</MEAN_MOTION><ECCENTRICITY>.000292</ECCENTRICITY><INCLINATION>44.9932</INCLINATION><RA_OF_ASC_NODE>129.0053</RA_OF_ASC_NODE><ARG_OF_PERICENTER>246.1598</ARG_OF_PERICENTER><MEAN_ANOMALY>251.3793</MEAN_ANOMALY></meanElements><tleParameters><EPHEMERIS_TYPE>0</EPHEMERIS_TYPE><CLASSIFICATION_TYPE>U</CLASSIFICATION_TYPE><NORAD_CAT_ID>25415</NORAD_CAT_ID><ELEMENT_SET_NO>999</ELEMENT_SET_NO><REV_AT_EPOCH>35098</REV_AT_EPOCH><BSTAR>.81368E-3</BSTAR><MEAN_MOTION_DOT>.2241E-4</MEAN_MOTION_DOT><MEAN_MOTION_DDOT>0</MEAN_MOTION_DDOT></tleParameters></data></segment></body></omm>

</ndm>
